{"type": "FeatureCollection", "features": [ {"type": "Feature", "properties": {"norad_id": 58662, "name": "TIANMU-1 21", "group": "weather", "lat": 69.8001544305024, "lon": 69.76839609222657, "alt_km": 468.11549255466434, "timestamp": "2025-12-03T04:52:29.284452+00:00", "meta": {"OBJECT_NAME": "TIANMU-1 21", "OBJECT_ID": "2023-208C", "EPOCH": "2025-12-02T20:43:23.380320", "MEAN_MOTION": 15.31215503, "ECCENTRICITY": 0.0006003, "INCLINATION": 97.4375, "RA_OF_ASC_NODE": 90.2248, "ARG_OF_PERICENTER": 301.309, "MEAN_ANOMALY": 58.7563, "EPHEMERIS_TYPE": 0, "CLASSIFICATION_TYPE": "U", "NORAD_CAT_ID": 58662, "ELEMENT_SET_NO": 999, "REV_AT_EPOCH": 10748, "BSTAR": 0.00048562, "MEAN_MOTION_DOT": 0.00014584, "MEAN_MOTION_DDOT": 0}, "tle": {"line1": "1 58662U 23208C   25336.86346505  .00014584  00000+0  48562-3 0  9997", "line2": "2 58662  97.4375  90.2248 0006003 301.3090  58.7563 15.31215503107484"}}, "geometry": {"type": "Point", "coordinates": [69.76839609222657, 69.8001544305024]}}, {"type": "Feature", "properties": {"norad_id": 58663, "name": "TIANMU-1 22", "group": "weather", "lat": 51.684274952556926, "lon": -82.15850407555384, "alt_km": 480.9611915900223, "timestamp": "2025-12-03T04:52:29.284463+00:00", "meta": {"OBJECT_NAME": "TIANMU-1 22", "OBJECT_ID": "2023-208D", "EPOCH": "2025-12-02T20:27:21.803616", "MEAN_MOTION": 15.27335865, "ECCENTRICITY": 0.0003111, "INCLINATION": 97.4385, "RA_OF_ASC_NODE": 87.9747, "ARG_OF_PERICENTER": 333.095, "MEAN_ANOMALY": 27.0127, "EPHEMERIS_TYPE": 0, "CLASSIFICATION_TYPE": "U", "NORAD_CAT_ID": 58663, "ELEMENT_SET_NO": 999, "REV_AT_EPOCH": 10732, "BSTAR": 0.0004407, "MEAN_MOTION_DOT": 0.00011732, "MEAN_MOTION_DDOT": 0}, "tle": {"line1": "1 58663U 23208D   25336.85233569  .00011732  00000+0  44070-3 0  9994", "line2": "2 58663  97.4385  87.9747 0003111 333.0950  27.0127 15.27335865107324"}}, "geometry": {"type": "Point", "coordinates": [-82.15850407555384, 51.684274952556926]}}, {"type": "Feature", "properties": {"norad_id": 58700, "name": "TIANMU-1 15", "group": "weather", "lat": -3.7248428443177977, "lon": 159.1960031850561, "alt_km": 492.163834703726, "timestamp": "2025-12-03T04:52:29.284473+00:00", "meta": {"OBJECT_NAME": "TIANMU-1 15", "OBJECT_ID": "2024-004A", "EPOCH": "2025-12-02T21:00:52.565760", "MEAN_MOTION": 15.24468796, "ECCENTRICITY": 0.000582, "INCLINATION": 97.4626, "RA_OF_ASC_NODE": 158.3809, "ARG_OF_PERICENTER": 337.8339, "MEAN_ANOMALY": 22.2646, "EPHEMERIS_TYPE": 0, "CLASSIFICATION_TYPE": "U", "NORAD_CAT_ID": 58700, "ELEMENT_SET_NO": 999, "REV_AT_EPOCH": 10584, "BSTAR": 0.0003766, "MEAN_MOTION_DOT": 9.185e-05, "MEAN_MOTION_DDOT": 0}, "tle": {"line1": "1 58700U 24004A   25336.87560840  .00009185  00000+0  37660-3 0  9994", "line2": "2 58700  97.4626 158.3809 0005820 337.8339  22.2646 15.24468796105843"}}, "geometry": {"type": "Point", "coordinates": [159.1960031850561, -3.7248428443177977]}}, {"type": "Feature", "properties": {"norad_id": 58701, "name": "TIANMU-1 16", "group": "weather", "lat": 81.84326580182469, "lon": 92.06338296691804, "alt_km": 486.9430973473436, "timestamp": "2025-12-03T04:52:29.284483+00:00", "meta": {"OBJECT_NAME": "TIANMU-1 16", "OBJECT_ID": "2024-004B", "EPOCH": "2025-12-02T23:46:09.262272", "MEAN_MOTION": 15.24215807, "ECCENTRICITY": 0.0005055, "INCLINATION": 97.4572, "RA_OF_ASC_NODE": 157.8955, "ARG_OF_PERICENTER": 336.3217, "MEAN_ANOMALY": 23.7787, "EPHEMERIS_TYPE": 0, "CLASSIFICATION_TYPE": "U", "NORAD_CAT_ID": 58701, "ELEMENT_SET_NO": 999, "REV_AT_EPOCH": 10586, "BSTAR": 6.5909e-05, "MEAN_MOTION_DOT": 1.535e-05, "MEAN_MOTION_DDOT": 0}, "tle": {"line1": "1 58701U 24004B   25336.99038498  .00001535  00000+0  65909-4 0  9996", "line2": "2 58701  97.4572 157.8955 0005055 336.3217  23.7787 15.24215807105866"}}, "geometry": {"type": "Point", "coordinates": [92.06338296691804, 81.84326580182469]}}, {"type": "Feature", "properties": {"norad_id": 58702, "name": "TIANMU-1 17", "group": "weather", "lat": 10.18608683688405, "lon": -20.138881935375686, "alt_km": 497.5936260684821, "timestamp": "2025-12-03T04:52:29.284493+00:00", "meta": {"OBJECT_NAME": "TIANMU-1 17", "OBJECT_ID": "2024-004C", "EPOCH": "2025-12-02T20:15:19.028736", "MEAN_MOTION": 15.2426635, "ECCENTRICITY": 0.000436, "INCLINATION": 97.46, "RA_OF_ASC_NODE": 158.1546, "ARG_OF_PERICENTER": 341.0029, "MEAN_ANOMALY": 19.1045, "EPHEMERIS_TYPE": 0, "CLASSIFICATION_TYPE": "U", "NORAD_CAT_ID": 58702, "ELEMENT_SET_NO": 999, "REV_AT_EPOCH": 10583, "BSTAR": 0.00037793, "MEAN_MOTION_DOT": 9.16e-05, "MEAN_MOTION_DDOT": 0}, "tle": {"line1": "1 58702U 24004C   25336.84397024  .00009160  00000+0  37793-3 0  9995", "line2": "2 58702  97.4600 158.1546 0004360 341.0029  19.1045 15.24266350105833"}}, "geometry": {"type": "Point", "coordinates": [-20.138881935375686, 10.18608683688405]}}, {"type": "Feature", "properties": {"norad_id": 58703, "name": "TIANMU-1 18", "group": "weather", "lat": -78.67639778967802, "lon": -62.17725407783332, "alt_km": 499.9023069130553, "timestamp": "2025-12-03T04:52:29.284508+00:00", "meta": {"OBJECT_NAME": "TIANMU-1 18", "OBJECT_ID": "2024-004D", "EPOCH": "2025-12-02T19:51:11.484864", "MEAN_MOTION": 15.24258614, "ECCENTRICITY": 0.0003726, "INCLINATION": 97.4617, "RA_OF_ASC_NODE": 158.331, "ARG_OF_PERICENTER": 342.7195, "MEAN_ANOMALY": 17.3915, "EPHEMERIS_TYPE": 0, "CLASSIFICATION_TYPE": "U", "NORAD_CAT_ID": 58703, "ELEMENT_SET_NO": 999, "REV_AT_EPOCH": 10583, "BSTAR": 0.00034744, "MEAN_MOTION_DOT": 8.412e-05, "MEAN_MOTION_DDOT": 0}, "tle": {"line1": "1 58703U 24004D   25336.82721626  .00008412  00000+0  34744-3 0  9995", "line2": "2 58703  97.4617 158.3310 0003726 342.7195  17.3915 15.24258614105830"}}, "geometry": {"type": "Point", "coordinates": [-62.17725407783332, -78.67639778967802]}}, {"type": "Feature", "properties": {"norad_id": 58990, "name": "INSAT-3DS", "group": "weather", "lat": -0.028013101853115917, "lon": -132.50704873922092, "alt_km": 35780.56483527723, "timestamp": "2025-12-03T04:52:29.284520+00:00", "meta": {"OBJECT_NAME": "INSAT-3DS", "OBJECT_ID": "2024-033A", "EPOCH": "2025-12-02T20:20:52.842048", "MEAN_MOTION": 1.00269649, "ECCENTRICITY": 0.0001635, "INCLINATION": 0.0139, "RA_OF_ASC_NODE": 270.8956, "ARG_OF_PERICENTER": 344.3356, "MEAN_ANOMALY": 204.0476, "EPHEMERIS_TYPE": 0, "CLASSIFICATION_TYPE": "U", "NORAD_CAT_ID": 58990, "ELEMENT_SET_NO": 999, "REV_AT_EPOCH": 4510, "BSTAR": 0, "MEAN_MOTION_DOT": -1.36e-06, "MEAN_MOTION_DDOT": 0}, "tle": {"line1": "1 58990U 24033A   25336.84783382 -.00000136  00000+0  00000+0 0  9994", "line2": "2 58990   0.0139 270.8956 0001635 344.3356 204.0476  1.00269649 45106"}}, "geometry": {"type": "Point", "coordinates": [-132.50704873922092, -0.028013101853115917]}}, {"type": "Feature", "properties": {"norad_id": 59051, "name": "METEOR-M2 4", "group": "weather", "lat": -28.744711090722188, "lon": -60.934231356383826, "alt_km": 819.8527888270355, "timestamp": "2025-12-03T04:52:29.284530+00:00", "meta": {"OBJECT_NAME": "METEOR-M2 4", "OBJECT_ID": "2024-039A", "EPOCH": "2025-12-02T20:34:11.935776", "MEAN_MOTION": 14.22398809, "ECCENTRICITY": 0.0007566, "INCLINATION": 98.6751, "RA_OF_ASC_NODE": 293.9216, "ARG_OF_PERICENTER": 25.9187, "MEAN_ANOMALY": 334.2368, "EPHEMERIS_TYPE": 0, "CLASSIFICATION_TYPE": "U", "NORAD_CAT_ID": 59051, "ELEMENT_SET_NO": 999, "REV_AT_EPOCH": 9135, "BSTAR": 4.9716e-05, "MEAN_MOTION_DOT": 6.7e-07, "MEAN_MOTION_DDOT": 0}, "tle": {"line1": "1 59051U 24039A   25336.85708259  .00000067  00000+0  49716-4 0  9994", "line2": "2 59051  98.6751 293.9216 0007566  25.9187 334.2368 14.22398809 91359"}}, "geometry": {"type": "Point", "coordinates": [-60.934231356383826, -28.744711090722188]}}, {"type": "Feature", "properties": {"norad_id": 60133, "name": "GOES 19", "group": "weather", "lat": -0.014661753383391275, "lon": 70.22335711257853, "alt_km": 35789.85634508516, "timestamp": "2025-12-03T04:52:29.284544+00:00", "meta": {"OBJECT_NAME": "GOES 19", "OBJECT_ID": "2024-119A", "EPOCH": "2025-12-02T19:22:50.444256", "MEAN_MOTION": 1.0027112, "ECCENTRICITY": 0.0001243, "INCLINATION": 0.0033, "RA_OF_ASC_NODE": 106.9022, "ARG_OF_PERICENTER": 190.9214, "MEAN_ANOMALY": 349.6149, "EPHEMERIS_TYPE": 0, "CLASSIFICATION_TYPE": "U", "NORAD_CAT_ID": 60133, "ELEMENT_SET_NO": 999, "REV_AT_EPOCH": 499, "BSTAR": 0, "MEAN_MOTION_DOT": -2.28e-06, "MEAN_MOTION_DDOT": 0}, "tle": {"line1": "1 60133U 24119A   25336.80752829 -.00000228  00000+0  00000+0 0  9991", "line2": "2 60133   0.0033 106.9022 0001243 190.9214 349.6149  1.00271120  4999"}}, "geometry": {"type": "Point", "coordinates": [70.22335711257853, -0.014661753383391275]}}, {"type": "Feature", "properties": {"norad_id": 65815, "name": "FENGYUN 3H", "group": "weather", "lat": -63.10841694926116, "lon": -65.51694471888291, "alt_km": 833.1668464944296, "timestamp": "2025-12-03T04:52:29.284556+00:00", "meta": {"OBJECT_NAME": "FENGYUN 3H", "OBJECT_ID": "2025-219A", "EPOCH": "2025-12-02T20:43:18.376032", "MEAN_MOTION": 14.19900112, "ECCENTRICITY": 6.35e-05, "INCLINATION": 98.6569, "RA_OF_ASC_NODE": 276.6689, "ARG_OF_PERICENTER": 69.7764, "MEAN_ANOMALY": 290.3481, "EPHEMERIS_TYPE": 0, "CLASSIFICATION_TYPE": "U", "NORAD_CAT_ID": 65815, "ELEMENT_SET_NO": 999, "REV_AT_EPOCH": 952, "BSTAR": 9.043e-05, "MEAN_MOTION_DOT": 1.49e-06, "MEAN_MOTION_DDOT": 0}, "tle": {"line1": "1 65815U 25219A   25336.86340713  .00000149  00000+0  90430-4 0  9998", "line2": "2 65815  98.6569 276.6689 0000635  69.7764 290.3481 14.19900112  9528"}}, "geometry": {"type": "Point", "coordinates": [-65.51694471888291, -63.10841694926116]}}]}